[{"OBJECT_NAME":"STARLINK-31558","OBJECT_ID":"2024-045U","EPOCH":"2026-03-09T10:00:48.820608","MEAN_MOTION":15.27570414,"ECCENTRICITY":0.00012334,"INCLINATION":43.0028,"RA_OF_ASC_NODE":93.7396,"ARG_OF_PERICENTER":257.8157,"MEAN_ANOMALY":102.2556,"EPHEMERIS_TYPE":0,"CLASSIFICATION_TYPE":"U","NORAD_CAT_ID":59196,"ELEMENT_SET_NO":999,"REV_AT_EPOCH":11313,"BSTAR":3.7583813e-5,"MEAN_MOTION_DOT":7.72e-6,"MEAN_MOTION_DDOT":0},{"OBJECT_NAME":"DELTA 1 DEB","OBJECT_ID":"1977-065EL","EPOCH":"2026-03-09T10:51:18.661248","MEAN_MOTION":14.3286909,"ECCENTRICITY":0.0430373,"INCLINATION":29.2548,"RA_OF_ASC_NODE":97.596,"ARG_OF_PERICENTER":297.4276,"MEAN_ANOMALY":58.3168,"EPHEMERIS_TYPE":0,"CLASSIFICATION_TYPE":"U","NORAD_CAT_ID":10478,"ELEMENT_SET_NO":999,"REV_AT_EPOCH":42332,"BSTAR":0.0017306922,"MEAN_MOTION_DOT":0.00013988,"MEAN_MOTION_DDOT":0}]
